SL-8 R/B                
1 15483U 85006B   26178.11381260  .00000164  00000+0  63145-4 0  9999
2 15483  74.0459  59.7976 0019080 305.3978 165.0663 14.37838734169751
SL-12 R/B(2)            
1 15772U 85042D   26178.29405803  .00000124  00000+0  77370-4 0  9990
2 15772  71.1065 216.1631 0036827 312.6105 120.1691 14.22007603129971
SL-14 R/B               
1 15945U 85069B   26178.26615753  .00000421  00000+0  44689-4 0  9992
2 15945  82.5273 281.8870 0018625 184.6245 175.4803 14.86522857189115
SL-16 R/B               
1 16182U 85097B   26178.29466510  .00000183  00000+0  11581-3 0  9994
2 16182  71.0034 269.7986 0005335  89.3485 332.5573 14.16613596102750
SL-14 R/B               
1 16496U 86006B   26177.94365853  .00000509  00000+0  51468-4 0  9993
2 16496  82.5267 156.9317 0074682 270.4713  88.7947 14.86954179165448
COSMOS 1743             
1 16719U 86034A   26178.10640877  .00054943  00000+0  49721-3 0  9992
2 16719  82.5273 318.1784 0004584 234.9071 125.1761 15.67849894197340
SL-14 R/B               
1 16792U 86046B   26178.18821989  .00000438  00000+0  47511-4 0  9995
2 16792  82.4821 336.7241 0022010 223.3175 136.6312 14.85677789142669
SL-14 R/B               
1 16882U 86055B   26178.05534135  .00000377  00000+0  40583-4 0  9999
2 16882  82.5198  23.8542 0018159 334.6873 139.4103 14.85729175135607
AJISAI (EGS)            
1 16908U 86061A   26178.26409513 -.00000111  00000+0 -97025-4 0  9990
2 16908  50.0084 116.4084 0011159 206.1602 267.9369 12.44516768481640
SL-14 R/B               
1 17567U 87024B   26178.18183224  .00000414  00000+0  44343-4 0  9990
2 17567  82.5281 349.8549 0016715 257.0528 102.8822 14.86219640104396
COSMOS 1833             
1 17589U 87027A   26178.23119933  .00000281  00000+0  17557-3 0  9997
2 17589  70.9202  95.7572 0023165  38.3176 321.9586 14.13057567 25798
SL-16 R/B               
1 17590U 87027B   26178.09790890  .00000256  00000+0  15069-3 0  9998
2 17590  71.0033  45.9443 0006740 301.6556  58.3910 14.17172808 30840
SL-14 R/B               
1 17912U 87038B   26178.30050787  .00000363  00000+0  39111-4 0  9990
2 17912  82.5004 193.5460 0019797 158.0034 202.2036 14.85450750 95506
COSMOS 1844             
1 17973U 87041A   26178.28992555  .00000218  00000+0  13795-3 0  9994
2 17973  70.8968 162.9967 0032354 220.6987 139.1717 14.14568879 19088
SL-14 R/B               
1 18153U 87055B   26178.25814003  .00000362  00000+0  38793-4 0  9994
2 18153  82.4987 245.7358 0020932  15.6423 344.5435 14.85717128 86207
COSMOS 1867             
1 18187U 87060A   26178.19319721 -.00000042  00000+0  21822-4 0  9998
2 18187  65.0115   0.0355 0016741 282.1266  77.7943 14.31516809 35614
SL-14 R/B               
1 18749U 88001B   26178.26086154  .00000374  00000+0  40298-4 0  9992
2 18749  82.5134  92.2971 0016718 233.2308 126.7374 14.85616128 58294
COSMOS 1933             
1 18958U 88020A   26178.18396686  .00004423  00000+0  21133-3 0  9995
2 18958  82.5124 142.5352 0004628 153.1674 206.9801 15.18775029 66849
SL-3 R/B                
1 19046U 88032B   26178.24378540  .00004263  00000+0  19447-3 0  9990
2 19046  97.5254 161.2745 0024604 207.9472 152.0444 15.20909788 68752
SL-16 R/B               
1 19120U 88039B   26178.26740140 -.00000142  00000+0 -44207-4 0  9998
2 19120  71.0128 196.8433 0021655 177.8964 182.2257 14.19630726973936
COSMOS 1953             
1 19210U 88050A   26178.15574348  .00007710  00000+0  26293-3 0  9994
2 19210  82.5077  47.9815 0012445  96.0478 264.2181 15.30110014 54513
SL-8 R/B                
1 19257U 88053B   26178.29454916  .00000168  00000+0  62815-4 0  9992
2 19257  74.0478 270.4263 0019244  62.0356 357.3995 14.38971087992360
COSMOS 1975             
1 19573U 88093A   26177.96854611  .00007168  00000+0  24945-3 0  9994
2 19573  82.5186   7.8617 0012153 139.3638 220.8512 15.29447643 36106
SL-14 R/B               
1 19574U 88093B   26178.30753302  .00000408  00000+0  43976-4 0  9995
2 19574  82.5317 299.1434 0021566  38.8799  22.1649 14.85748987 17294
SL-16 R/B               
1 19650U 88102B   26178.03533636  .00000259  00000+0  15466-3 0  9993
2 19650  71.0003 281.4171 0015253 211.4736 148.5476 14.16167041942379
INTERCOSMOS 24          
1 20261U 89080A   26178.10291128  .00000712  00000+0  20252-3 0  9997
2 20261  82.6055  33.1927 1188104  38.9202 329.1615 12.59675560680570
SL-14 R/B               
1 20262U 89080C   26178.24204907  .00000153  00000+0  46130-4 0  9995
2 20262  82.5943 102.8481 1228410 294.3865  53.3911 12.50574556673844
DELTA 1 R/B             
1 20323U 89089B   26178.28932322  .00000324  00000+0  88510-4 0  9993
2 20323  97.0633   8.2310 0070053 135.3964 225.2901 14.50737342911626
ARIANE 40 R/B           
1 20443U 90005H   26178.12048583  .00000230  00000+0  86532-4 0  9994
2 20443  98.2956 235.4277 0009128 230.5492 129.4890 14.39932213908556
DELTA 2 R/B(1)          
1 20453U 90008B   26177.98570713  .00084532  00000+0  58582-3 0  9996
2 20453  35.5990 170.0351 0064423 207.3523 152.3819 15.70332940943240
