OBJECT_NAME,OBJECT_ID,EPOCH,MEAN_MOTION,ECCENTRICITY,INCLINATION,RA_OF_ASC_NODE,ARG_OF_PERICENTER,MEAN_ANOMALY,EPHEMERIS_TYPE,CLASSIFICATION_TYPE,NORAD_CAT_ID,ELEMENT_SET_NO,REV_AT_EPOCH,BSTAR,MEAN_MOTION_DOT,MEAN_MOTION_DDOT
SL-8 R/B,1985-006B,2026-06-27T02:43:53.408640,14.37838734,.001908,74.0459,59.7976,305.3978,165.0663,0,U,15483,999,16975,.6314521E-4,.164E-5,0
SL-12 R/B(2),1985-042D,2026-06-27T07:03:26.613792,14.22007603,.00368272,71.1065,216.1631,312.6105,120.1691,0,U,15772,999,12997,.77369741E-4,.124E-5,0
SL-14 R/B,1985-069B,2026-06-27T06:23:16.010592,14.86522857,.00186251,82.5273,281.8870,184.6245,175.4803,0,U,15945,999,18911,.44689049E-4,.421E-5,0
SL-16 R/B,1985-097B,2026-06-27T07:04:19.064640,14.16613596,.00053356,71.0034,269.7986,89.3485,332.5573,0,U,16182,999,10275,.11580621E-3,.183E-5,0
SL-14 R/B,1986-006B,2026-06-26T22:38:52.096992,14.86954179,.00746825,82.5267,156.9317,270.4713,88.7947,0,U,16496,999,16544,.51467609E-4,.509E-5,0
COSMOS 1743,1986-034A,2026-06-27T02:33:13.717728,15.67849894,.00045848,82.5273,318.1784,234.9071,125.1761,0,U,16719,999,19734,.49721249E-3,.54943E-3,0
SL-14 R/B,1986-046B,2026-06-27T04:31:02.198496,14.85677789,.00220104,82.4821,336.7241,223.3175,136.6312,0,U,16792,999,14266,.47510755E-4,.438E-5,0
SL-14 R/B,1986-055B,2026-06-27T01:19:41.492640,14.85729175,.00181592,82.5198,23.8542,334.6873,139.4103,0,U,16882,999,13560,.40583369E-4,.377E-5,0
AJISAI (EGS),1986-061A,2026-06-27T06:20:17.819232,12.44516768,.00111596,50.0084,116.4084,206.1602,267.9369,0,U,16908,999,48164,-.97025236E-4,-.111E-5,0
SL-14 R/B,1987-024B,2026-06-27T04:21:50.305536,14.86219640,.00167154,82.5281,349.8549,257.0528,102.8822,0,U,17567,999,10439,.4434282E-4,.414E-5,0
COSMOS 1833,1987-027A,2026-06-27T05:32:55.622112,14.13057567,.0023165,70.9202,95.7572,38.3176,321.9586,0,U,17589,999,2579,.17556674E-3,.281E-5,0
SL-16 R/B,1987-027B,2026-06-27T02:20:59.328960,14.17172808,.00067406,71.0033,45.9443,301.6556,58.3910,0,U,17590,999,3084,.1506922E-3,.256E-5,0
SL-14 R/B,1987-038B,2026-06-27T07:12:43.879968,14.85450750,.00197972,82.5004,193.5460,158.0034,202.2036,0,U,17912,999,9550,.39110886E-4,.363E-5,0
COSMOS 1844,1987-041A,2026-06-27T06:57:29.567520,14.14568879,.00323544,70.8968,162.9967,220.6987,139.1717,0,U,17973,999,1908,.13795334E-3,.218E-5,0
SL-14 R/B,1987-055B,2026-06-27T06:11:43.298592,14.85717128,.00209322,82.4987,245.7358,15.6423,344.5435,0,U,18153,999,8620,.3879311E-4,.362E-5,0
COSMOS 1867,1987-060A,2026-06-27T04:38:12.238944,14.31516809,.00167419,65.0115,0.0355,282.1266,77.7943,0,U,18187,999,3561,.21821822E-4,-.42E-6,0
SL-14 R/B,1988-001B,2026-06-27T06:15:38.437056,14.85616128,.0016718,82.5134,92.2971,233.2308,126.7374,0,U,18749,999,5829,.40297809E-4,.374E-5,0
COSMOS 1933,1988-020A,2026-06-27T04:24:54.736704,15.18775029,.00046282,82.5124,142.5352,153.1674,206.9801,0,U,18958,999,6684,.21133064E-3,.4423E-4,0
SL-3 R/B,1988-032B,2026-06-27T05:51:03.058560,15.20909788,.00246046,97.5254,161.2745,207.9472,152.0444,0,U,19046,999,6875,.19446951E-3,.4263E-4,0
SL-16 R/B,1988-039B,2026-06-27T06:25:03.480960,14.19630726,.00216556,71.0128,196.8433,177.8964,182.2257,0,U,19120,999,97393,-.44207496E-4,-.142E-5,0
COSMOS 1953,1988-050A,2026-06-27T03:44:16.236672,15.30110014,.00124456,82.5077,47.9815,96.0478,264.2181,0,U,19210,999,5451,.26293283E-3,.771E-4,0
SL-8 R/B,1988-053B,2026-06-27T07:04:09.047424,14.38971087,.00192443,74.0478,270.4263,62.0356,357.3995,0,U,19257,999,99236,.62814693E-4,.168E-5,0
COSMOS 1975,1988-093A,2026-06-26T23:14:42.383904,15.29447643,.00121539,82.5186,7.8617,139.3638,220.8512,0,U,19573,999,3610,.24945338E-3,.7168E-4,0
SL-14 R/B,1988-093B,2026-06-27T07:22:50.852928,14.85748987,.00215668,82.5317,299.1434,38.8799,22.1649,0,U,19574,999,1729,.43975872E-4,.408E-5,0
SL-16 R/B,1988-102B,2026-06-27T00:50:53.061504,14.16167041,.00152537,71.0003,281.4171,211.4736,148.5476,0,U,19650,999,94237,.15465513E-3,.259E-5,0
INTERCOSMOS 24,1989-080A,2026-06-27T02:28:11.534592,12.59675560,.11881048,82.6055,33.1927,38.9202,329.1615,0,U,20261,999,68057,.20251899E-3,.712E-5,0
SL-14 R/B,1989-080C,2026-06-27T05:48:33.039648,12.50574556,.12284103,82.5943,102.8481,294.3865,53.3911,0,U,20262,999,67384,.46129614E-4,.153E-5,0
DELTA 1 R/B,1989-089B,2026-06-27T06:56:37.526208,14.50737342,.00700531,97.0633,8.2310,135.3964,225.2901,0,U,20323,999,91162,.88510204E-4,.324E-5,0
ARIANE 40 R/B,1990-005H,2026-06-27T02:53:29.975712,14.39932213,.00091286,98.2956,235.4277,230.5492,129.4890,0,U,20443,999,90855,.86531631E-4,.23E-5,0
DELTA 2 R/B(1),1990-008B,2026-06-26T23:39:25.096032,15.70332940,.00644234,35.5990,170.0351,207.3523,152.3819,0,U,20453,999,94324,.58582236E-3,.84532E-3,0
